NOAA 15                 
1 25338U 98030A   22272.53479438  .00000141  00000+0  77135-4 0  9991
2 25338  98.6375 300.6772 0010233   0.6507 359.4685 14.26175122268101
DMSP 5D-3 F15 (USA 147) 
1 25991U 99067A   22272.52732866  .00000153  00000+0  10009-3 0  9992
2 25991  99.0610 265.9201 0009091 252.4986 220.0645 14.16574396178509
METEOSAT-8 (MSG-1)      
1 27509U 02040B   22272.54856956  .00000141  00000+0  00000+0 0  9996
2 27509   8.2279  50.0571 0002504 130.1397  66.9810  1.00272585 73657
DMSP 5D-3 F16 (USA 172) 
1 28054U 03048A   22272.58462071  .00000116  00000+0  85665-4 0  9993
2 28054  98.9974 263.9707 0007952  30.0023 122.2550 14.13686798977746
NOAA 18                 
1 28654U 05018A   22272.52807020  .00000185  00000+0  12338-3 0  9991
2 28654  98.9405 342.8407 0014760  41.1133 319.1148 14.12781557894673
METEOSAT-9 (MSG-2)      
1 28912U 05049B   22272.54944156  .00000133  00000+0  00000+0 0  9998
2 28912   6.2491  65.5865 0001910 186.1113   0.0640  1.00272825 61434
EWS-G1 (GOES 13)        
1 29155U 06018A   22272.55266799  .00000040  00000+0  00000+0 0  9993
2 29155   0.8406  95.4183 0006075 115.3523  58.1218  1.00268942 29772
DMSP 5D-3 F17 (USA 191) 
1 29522U 06050A   22272.51273015  .00000128  00000+0  89980-4 0  9998
2 29522  98.7664 285.6146 0009239 331.0212  29.0447 14.14116794820610
FENGYUN 3A              
1 32958U 08026A   22272.49276013  .00000125  00000+0  80415-4 0  9999
2 32958  98.5148 230.9277 0009937  83.1299 277.1007 14.18742402743083
FENGYUN 2E              
1 33463U 08066A   22272.48587249 -.00000198  00000+0  00000+0 0  9998
2 33463   6.1317  64.6670 0000924  40.9270 164.1262  1.00274801 50487
NOAA 19                 
1 33591U 09005A   22272.54113605  .00000184  00000+0  12421-3 0  9990
2 33591  99.1394 308.8242 0012976 254.5253 105.4486 14.12614598703140
GOES 14                 
1 35491U 09033A   22272.58191432 -.00000089  00000+0  00000+0 0  9991
2 35491   0.3673 267.2094 0017751 306.4223 259.8079  1.00272780 48508
METEOR-M 1              
1 35865U 09049A   22272.50836601  .00000103  00000+0  65358-4 0  9997
2 35865  98.5410 239.6791 0001238 302.3920  57.7139 14.22359508676477
DMSP 5D-3 F18 (USA 210) 
1 35951U 09057A   22272.52813811  .00000191  00000+0  12436-3 0  9997
2 35951  98.7340 249.4027 0011598 145.1423 215.0512 14.13560482667838
GOES 15                 
1 36411U 10008A   22272.60981067  .00000058  00000+0  00000+0 0  9997
2 36411   0.3276 277.7705 0004351 247.3641 294.6732  1.00264871 46068
COMS 1                  
1 36744U 10032A   22272.56592242 -.00000340  00000+0  00000+0 0  9996
2 36744   1.3407  91.9265 0000865  95.9117 152.3647  1.00270091 37484
FENGYUN 3B              
1 37214U 10059A   22272.49198982  .00000003  00000+0  25790-4 0  9996
2 37214  99.0948 280.3233 0023119  62.8837 297.4699 14.14266062615661
SUOMI NPP               
1 37849U 11061A   22272.58652684  .00000094  00000+0  65148-4 0  9999
2 37849  98.7378 209.7157 0001110  78.5528 333.4733 14.19546252565971
FENGYUN 2F              
1 38049U 12002A   22272.57388111 -.00000352  00000+0  00000+0 0  9997
2 38049   4.0403  78.8325 0001187 353.2264 254.9586  1.00276525 39270
METEOSAT-10 (MSG-3)     
1 38552U 12035B   22272.58660580  .00000064  00000+0  00000+0 0  9995
2 38552   1.6833  46.5317 0001250 125.2085  57.0223  1.00268241 37253
METOP-B                 
1 38771U 12049A   22272.60919997  .00000099  00000+0  65537-4 0  9994
2 38771  98.7187 330.8201 0001816  93.0023  66.6612 14.21476556520531
FENGYUN 3C              
1 39260U 13052A   22272.50057158  .00000077  00000+0  59691-4 0  9994
2 39260  98.4492 295.3220 0010720 340.9349  19.1425 14.15945295466646
METEOR-M 2              
1 40069U 14037A   22272.48497368  .00000030  00000+0  32896-4 0  9992
2 40069  98.4308 285.5384 0006299  30.1793 329.9750 14.20719720426636
HIMAWARI-8              
1 40267U 14060A   22272.56836403 -.00000272  00000+0  00000+0 0  9990
2 40267   0.0167 171.0517 0001129  35.5553 147.0044  1.00271889 29159
FENGYUN 2G              
1 40367U 14090A   22272.59734632 -.00000299  00000+0  00000+0 0  9997
2 40367   2.1910  88.3734 0002319 204.7192  30.0032  1.00273496 28390
METEOSAT-11 (MSG-4)     
1 40732U 15034A   22272.40813139 -.00000001  00000+0  00000+0 0  9993
2 40732   0.5119  72.9311 0000669  65.1531  16.6802  1.00275327 26423
ELEKTRO-L 2             
1 41105U 15074A   22272.60926102 -.00000110  00000+0  00000+0 0  9990
2 41105   3.2444  86.9044 0002124  93.8896  32.4194  1.00272607 24917
HIMAWARI-9              
1 41836U 16064A   22271.92268334 -.00000271  00000+0  00000+0 0  9999
2 41836   0.0152 271.4086 0000766 309.6497 259.5497  1.00270042 21580
GOES 16                 
1 41866U 16071A   22272.52537427 -.00000245  00000+0  00000+0 0  9990
2 41866   0.0745 289.5230 0000463 290.9954 261.7104  1.00271439 21510
FENGYUN 4A              
1 41882U 16077A   22272.59983741 -.00000327  00000+0  00000+0 0  9996
2 41882   0.2244 284.7808 0003669 112.2111 291.9910  1.00272809 21370
CYGFM05                 
1 41884U 16078A   22272.38851167  .00004063  00000+0  20287-3 0  9995
2 41884  34.9558 274.2938 0015359 299.5225  60.3955 15.16830201320575
CYGFM04                 
1 41885U 16078B   22272.40371975  .00003951  00000+0  19443-3 0  9990
2 41885  34.9488 262.8434 0013699 316.6467  43.3167 15.17372840320629
CYGFM02                 
1 41886U 16078C   22272.39190052  .00003728  00000+0  18332-3 0  9992
2 41886  34.9582 265.1596 0014455 310.6860  49.2596 15.17411293320708
CYGFM01                 
1 41887U 16078D   22272.40376035  .00003891  00000+0  19545-3 0  9990
2 41887  34.9528 276.7583 0015829 299.2412  60.6717 15.16634126320527
CYGFM08                 
1 41888U 16078E   22272.42175725  .00003933  00000+0  19488-3 0  9999
2 41888  34.9495 268.8039 0014954 311.2105  48.7318 15.17114460320665
CYGFM06                 
1 41889U 16078F   22272.37116394  .00004084  00000+0  20061-3 0  9998
2 41889  34.9577 263.9506 0013413 310.3880  49.5662 15.17427530320645
CYGFM07                 
1 41890U 16078G   22272.36016151  .00004251  00000+0  20915-3 0  9993
2 41890  34.9513 262.8745 0013193 314.8657  45.0983 15.17358991320625
CYGFM03                 
1 41891U 16078H   22272.29306837  .00004177  00000+0  20557-3 0  9998
2 41891  34.9544 263.7916 0012711 311.8882  48.0746 15.17362299320606
FENGYUN 3D              
1 43010U 17072A   22272.48220362  .00000036  00000+0  38309-4 0  9992
2 43010  98.8227 216.6005 0001627 357.4123   2.7034 14.19225060252529
NOAA 20                 
1 43013U 17073A   22272.54037479  .00000074  00000+0  56041-4 0  9993
2 43013  98.7217 209.4873 0001585  96.3138 263.8218 14.19545756251992
GOES 17                 
1 43226U 18022A   22272.59815733  .00000101  00000+0  00000+0 0  9996
2 43226   0.0647 284.9066 0000319 227.0486 294.3993  1.00272430 16817
FENGYUN 2H              
1 43491U 18050A   22272.55615598 -.00000123  00000+0  00000+0 0  9999
2 43491   1.4051  95.1143 0003906  61.0666 131.3848  1.00273362 15839
METOP-C                 
1 43689U 18087A   22272.54425238  .00000090  00000+0  61164-4 0  9992
2 43689  98.6733 330.7912 0003849  98.9184 261.2429 14.21510472202092
GEO-KOMPSAT-2A          
1 43823U 18100A   22272.56592242 -.00000341  00000+0  00000+0 0  9997
2 43823   0.0487  21.5481 0001491 106.4805 212.2680  1.00268306 14014
METEOR-M2 2             
1 44387U 19038A   22272.51536650  .00000016  00000+0  26255-4 0  9993
2 44387  98.7339 232.5135 0001454  21.8388 338.2846 14.23721292168217
FENGYUN 3E              
1 49008U 21062A   22272.46388072  .00000016  00000+0  28388-4 0  9994
2 49008  98.7160 272.8023 0002791  62.2248 297.9215 14.19739578 64077
GOES 18                 
1 51850U 22021A   22272.59982160  .00000100  00000+0  00000+0 0  9990
2 51850   0.0105  75.1006 0002721 139.2476 232.9882  1.00273611  2175
